"full_name","e","q","i","om","w","ad","tp_cal","per_y","class","data_arc","condition_code","n_obs_used","two_body","A1","A2","A3","DT"
"     C/-146 P1",1.0000,0.430,71.00,330.00,261.00,,-146-06-28.0,,PAR,5,,4,T,,,,
"     C/-43 K1",1.0000,0.220,110.00,170.00,17.00,,-043-05-25.0,,PAR,54,,,T,,,,
"     C/240 V1",1.0000,0.370,44.00,214.00,82.00,,0240-11-10.0,,PAR,39,,,T,,,,
"     C/390 Q1",1.0000,0.920,36.00,356.00,23.00,,0390-09-05.0,,PAR,26,,3,T,,,,
"     C/400 F1",1.0000,0.210,32.00,38.00,47.00,,0400-02-25.0,,PAR,22,,,T,,,,
"     C/418 M1",1.0000,0.350,110.00,310.00,240.00,,0418-10-05.0,,PAR,82,,,T,,,,
"     C/442 V1",1.0000,1.530,106.00,271.00,178.00,,0442-12-15.0,,PAR,100,,,T,,,,
"     C/539 W1",1.0000,0.160,19.00,33.00,246.00,,0539-11-06.0,,PAR,74,,,T,,,,
"     C/565 O1",1.0000,0.830,121.00,180.00,79.00,,0565-07-15.0,,PAR,105,,,T,,,,
"     C/568 O1",1.0000,0.870,4.00,301.80,34.90,,0568-08-27.7,,PAR,63,,4,T,,,,
"     C/574 G1",1.0000,0.730,54.00,155.00,342.00,,0574-03-25.0,,PAR,49,,3,T,,,,
"     C/770 K1",1.0000,0.580,117.00,110.70,88.00,,0770-06-05.8,,PAR,44,,4,T,,,,
"     C/817 C1",1.0000,1.100,120.00,315.00,202.00,,0817-03-03.0,,PAR,15,,,T,,,,
"     C/868 B1",1.0000,0.420,65.00,321.00,277.00,,0868-03-04.0,,PAR,7,,3,T,,,,
"     C/905 K1",1.0000,0.200,140.00,70.00,50.00,,0905-04-26.0,,PAR,25,,4,T,,,,
"     C/962 B1",1.0000,0.630,119.00,2.00,85.00,,0961-12-28.0,,PAR,64,,3,T,,,,
"     C/1014 C1",1.0000,0.560,117.00,174.00,84.00,,1014-04-06.0,,PAR,8,,3,T,,,,
"     C/1018 P1",1.0000,0.620,35.00,185.00,197.00,,1018-08-27.0,,PAR,38,,4,T,,,,
"     C/1080 P1",1.0000,0.681,6.90,322.90,73.60,,1080-09-10.9,,PAR,17,,4,T,,,,
"     C/1092 A1",1.0000,0.770,124.00,114.00,62.00,,1092-02-22.0,,PAR,22,,3,T,,,,
"     C/1097 T1",1.0000,0.300,41.00,352.00,298.00,,1097-09-22.0,,PAR,11,,4,T,,,,
"     C/1110 K1",1.0000,0.830,137.00,321.00,358.00,,1110-05-18.0,,PAR,13,,3,T,,,,
"     C/1132 T1",1.0000,0.736,106.30,213.20,114.20,,1132-08-30.7,,PAR,4,,3,T,,,,
"     C/1147 A1",1.0000,0.120,110.00,282.00,300.00,,1147-01-28.0,,PAR,38,,,T,,,,
"     C/1230 X1",1.0000,0.860,16.00,303.70,181.00,,1230-12-28.8,,PAR,26,,3,T,,,,
"     C/1240 B1",1.0000,0.668,75.30,135.10,331.40,,1240-01-21.6,,PAR,22,,4,T,,,,
"     C/1245 D1",1.0000,0.500,20.00,180.00,87.00,,1245-04-01.0,,PAR,33,,,T,,,,
"     C/1264 N1",1.0000,0.825,16.40,151.04,159.71,,1264-07-20.2,,PAR,70,,7,T,,,,
"     C/1293 V1",1.0000,0.780,30.00,89.00,313.00,,1293-10-28.0,,PAR,28,,,T,,,,
"     C/1299 B1",1.0000,0.318,111.00,116.94,103.89,,1299-03-31.8,,PAR,40,,3,T,,,,
"     C/1304 C1",1.0000,0.840,65.00,88.70,25.00,,1304-02-05.5,,PAR,75,,,T,,,,
"     C/1304 Y1",1.0000,0.650,99.00,106.00,56.00,,1305-01-19.0,,PAR,4,,,T,,,,
"     C/1315 U1",1.0000,1.650,125.30,176.30,27.30,,1315-10-15.1,,PAR,67,,6,T,,,,
"     C/1337 M1",1.0000,0.749,143.60,97.61,79.61,,1337-06-14.8,,PAR,54,,7,T,,,,
"     C/1340 F1",1.0000,1.136,176.48,187.63,32.44,,1340-05-13.6,,PAR,11,,3,T,,,,
"     C/1345 O1",1.0000,0.890,23.00,150.00,210.00,,1345-08-23.0,,PAR,3,,,T,,,,
"     C/1351 W1",1.0000,1.010,7.00,264.00,165.00,,1351-11-19.0,,PAR,6,,3,T,,,,
"     C/1362 E1",1.0000,0.300,155.00,291.00,348.00,,1362-02-25.0,,PAR,27,,3,T,,,,
"     C/1368 E1",1.0000,0.480,131.00,217.00,90.00,,1368-05-05.0,,PAR,19,,,T,,,,
"     C/1376 M1",1.0000,0.550,76.00,300.70,81.00,,1376-07-31.7,,PAR,47,,3,T,,,,
"     C/1385 U1",1.0000,0.790,103.00,289.00,182.00,,1385-10-24.0,,PAR,12,,3,T,,,,
"     C/1402 D1",1.0000,0.380,55.00,126.00,91.00,,1402-03-21.0,,PAR,,,,T,,,,
"     C/1433 R1",1.0000,0.493,103.98,104.25,189.39,,1433-11-08.2,,PAR,26,,3,T,,,,
"     C/1439 F1",1.0000,0.120,81.00,192.00,140.00,,1439-05-09.0,,PAR,18,,3,T,,,,
"     C/1449 Y1",1.0000,0.327,155.68,268.81,356.69,,1449-12-09.8,,PAR,48,,20,T,,,,
"     C/1457 A1",1.0000,0.703,13.25,257.53,194.60,,1457-01-18.4,,PAR,4,,3,T,,,,
"     C/1457 L1",1.0000,0.770,7.33,187.55,183.28,,1457-08-08.1,,PAR,45,,3,T,,,,
"     C/1458 Y1",1.0000,0.490,69.00,117.00,258.00,,1458-11-07.0,,PAR,16,,,T,,,,
"     C/1462 M1",1.0000,0.250,130.00,316.00,137.00,,1462-08-04.0,,PAR,17,,,T,,,,
"     C/1468 S1",1.0000,0.850,138.00,106.70,91.00,,1468-10-07.3,,PAR,51,,3,T,,,,
"     C/1471 Y1",1.0000,0.486,170.87,292.87,245.73,,1472-03-01.4,,PAR,12,,3,T,,,,
"     C/1490 Y1",1.0000,0.738,51.65,295.89,129.84,,1490-12-24.9,,PAR,22,,3,T,,,,
"     C/1499 Q1",1.0000,0.950,16.00,329.00,42.00,,1499-09-09.0,,PAR,21,,3,T,,,,
"     C/1500 H1",1.0000,1.110,99.00,305.00,352.00,,1500-04-30.0,,PAR,63,,3,T,,,,
"     C/1506 O1",1.0000,0.840,115.00,155.70,200.00,,1506-08-28.5,,PAR,14,,3,T,,,,
"     C/1532 R1",1.0000,0.519,32.59,93.81,24.53,,1532-10-18.8,,PAR,37,,3,T,,,,
"     C/1533 M1",1.0000,0.255,149.59,125.42,21.40,,1533-06-15.4,,PAR,29,,10,T,,,,
"     C/1538 A1",1.0000,0.148,42.46,356.20,287.70,,1537-12-30.3,,PAR,8,,5,T,,,,
"     C/1539 H1",1.0000,0.961,18.60,55.10,174.50,,1539-05-12.6,,PAR,36,,3,T,,,,
"     C/1556 D1",1.0000,0.491,32.37,181.44,100.87,,1556-04-22.6,,PAR,52,,36,T,,,,
"     C/1557 T1",1.0000,0.500,42.00,212.00,94.00,,1557-09-22.0,,PAR,19,,3,T,,,,
"     C/1558 P1",1.0000,0.281,110.94,341.21,119.60,,1558-09-14.0,,PAR,13,,7,T,,,,
"     C/1577 V1",1.0000,0.177,104.88,31.24,255.67,,1577-10-27.4,,PAR,74,,24,T,,,,
"     C/1580 T1",1.0000,0.602,64.61,24.95,89.37,,1580-11-28.9,,PAR,32,,10,F,,,,
"     C/1582 J1",1.0000,0.169,118.54,233.03,331.89,,1582-05-06.9,,PAR,6,,3,T,,,,
"     C/1585 T1",1.0000,1.095,6.13,43.14,331.78,,1585-10-08.5,,PAR,25,,28,F,,,,
"     C/1590 E1",1.0000,0.568,150.45,171.34,307.67,,1590-02-08.5,,PAR,11,,32,T,,,,
"     C/1593 O1",1.0000,0.089,87.91,169.92,12.07,,1593-07-19.0,,PAR,27,,3,T,,,,
"     C/1596 N1",1.0000,0.567,128.08,335.96,59.41,,1596-07-25.7,,PAR,7,,3,T,,,,
"     C/1618 Q1",1.0000,0.513,21.49,298.84,24.80,,1618-08-17.6,,PAR,24,,7,T,,,,
"     C/1618 V1",1.0000,0.744,8.40,229.50,155.90,,1618-10-27.9,,PAR,28,,6,T,,,,
"     C/1618 W1",1.0000,0.390,37.20,81.00,287.44,,1618-11-08.8,,PAR,53,,42,T,,,,
"     C/1639 U1",1.0000,0.816,61.70,219.70,237.40,,1639-11-29.4,,PAR,3,,4,T,,,,
"     C/1652 Y1",1.0000,0.848,79.46,93.00,300.19,,1652-11-13.1,,PAR,18,,54,T,,,,
"     C/1661 C1",1.0000,0.443,33.02,86.56,33.45,,1661-01-27.3,,PAR,35,,3,T,,,,
"     C/1664 W1",1.0000,1.026,158.70,86.05,310.68,,1664-12-04.9,,PAR,61,,30,F,,,,
"     C/1665 F1",1.0000,0.106,103.89,232.70,156.09,,1665-04-24.7,,PAR,14,,8,T,,,,
"     C/1668 E1",1.0000,0.067,144.38,3.21,109.81,,1668-02-28.0,,PAR,16,,15,T,,,,
"     C/1672 E1",1.0000,0.695,82.97,302.69,109.52,,1672-03-01.9,,PAR,24,,34,T,,,,
"     C/1677 H1",1.0000,0.281,100.93,241.32,99.16,,1677-05-06.5,,PAR,9,,10,T,,,,
"     C/1683 O1",1.0000,0.560,96.74,177.84,87.81,,1683-07-13.5,,PAR,43,,,T,,,,
"     C/1684 N1",1.0000,0.958,65.42,272.60,330.30,,1684-06-08.7,,PAR,16,,,T,,,,
"     C/1686 R1",1.0000,0.336,34.97,358.44,81.91,,1686-09-16.3,,PAR,29,,3,T,,,,
"     C/1689 X1",1.0000,0.064,63.20,283.75,78.13,,1689-11-30.6,,PAR,13,,4,T,,,,
"     C/1695 U1",1.0000,0.042,93.59,286.02,59.12,,1695-10-23.7,,PAR,20,,13,T,,,,
"     C/1698 R1",1.0000,0.729,169.09,70.28,151.38,,1698-10-17.5,,PAR,26,,3,T,,,,
"     C/1699 D1",1.0000,0.749,109.42,325.89,109.52,,1699-01-13.9,,PAR,11,,3,T,,,,
"     C/1701 U1",1.0000,0.593,138.37,302.81,164.95,,1701-10-17.9,,PAR,7,,3,T,,,,
"     C/1702 H1",1.0000,0.647,4.38,193.29,309.64,,1702-03-14.1,,PAR,11,,5,T,,,,
"     C/1706 F1",1.0000,0.427,55.27,17.28,59.43,,1706-01-30.7,,PAR,23,,6,T,,,,
"     C/1707 W1",1.0000,0.859,88.65,56.92,27.16,,1707-12-12.4,,PAR,26,,4,T,,,,
"     C/1718 B1",1.0000,1.025,148.84,131.90,6.31,,1718-01-15.4,,PAR,18,,13,T,,,,
"     C/1723 T1",1.0000,0.999,130.03,18.10,331.38,,1723-09-28.1,,PAR,59,,15,T,,,,
"     C/1729 P1",1.0000,4.051,77.09,314.39,10.40,,1729-06-16.6,,PAR,135,,3,T,,,,
"     C/1733 K1",1.0000,0.103,23.79,271.05,187.89,,1733-05-06.1,,PAR,7,,4,T,,,,
"     C/1737 C1",1.0000,0.223,18.33,230.12,99.46,,1737-01-30.8,,PAR,35,,15,T,,,,
"     C/1739 K1",1.0000,0.674,124.26,211.04,104.75,,1739-06-17.9,,PAR,82,,,T,,,,
"     C/1742 C1",1.0000,0.766,112.95,189.20,328.04,,1742-02-08.6,,PAR,62,,100,T,,,,
"     C/1743 C1",1.0000,0.838,2.28,70.30,26.25,,1743-01-11.3,,PAR,16,,4,T,,,,
"     C/1743 Q1",1.0000,0.523,134.41,9.63,119.05,,1743-09-21.1,,PAR,26,,12,T,,,,
"     C/1743 X1",1.0000,0.222,47.14,49.30,151.49,,1744-03-01.8,,PAR,71,,76,T,,,,
"     C/1746 P1",1.0000,2.199,100.86,150.85,230.29,,1747-03-03.9,,PAR,114,,30,T,,,,
"     C/1748 H1",1.0000,0.841,94.53,236.38,17.83,,1748-04-29.3,,PAR,51,,20,T,,,,
"     C/1748 K1",1.0000,0.625,67.08,36.64,245.67,,1748-06-19.3,,PAR,3,,3,T,,,,
"     C/1750 C1",1.0000,0.200,132.00,303.00,285.00,,1750-02-23.0,,PAR,4,,3,T,,,,
"     C/1757 R1",1.0000,0.337,12.83,217.68,268.69,,1757-10-21.8,,PAR,35,,16,T,,,,
"     C/1758 K1",1.0000,0.215,68.30,234.21,36.77,,1758-06-11.6,,PAR,79,,,T,,,,
"     C/1760 A1 (Great comet)",1.0000,0.966,175.13,83.55,301.73,,1759-12-17.3,,PAR,31,,,T,,,,
"     C/1760 B1 (Messier)",1.0000,0.801,79.08,143.01,273.93,,1759-11-27.5,,PAR,50,,19,T,,,,
"     C/1762 K1 (Klinkenberg)",1.0000,1.009,85.67,351.87,115.48,,1762-05-28.8,,PAR,29,,3,T,,,,
"     C/1763 S1 (Messier)",1.0000,0.498,72.50,359.75,88.57,,1763-11-02.3,,PAR,46,,4,T,,,,
"     C/1764 A1 (Messier)",1.0000,0.555,127.09,123.39,104.86,,1764-02-13.0,,PAR,39,,,T,,,,
"     C/1766 E1 (Messier)",1.0000,0.505,139.15,247.41,100.88,,1766-02-17.8,,PAR,7,,16,T,,,,
"     C/1771 A1 (Great comet)",1.0000,0.528,148.56,111.94,260.38,,1770-11-22.7,,PAR,10,,4,T,,,,
"     C/1771 G1 (Messier)",1.0000,0.902,11.29,31.00,76.23,,1771-04-19.6,,PAR,72,,100,F,,,,
"     C/1773 T1 (Messier)",1.0000,1.127,61.22,124.24,314.12,,1773-09-06.1,,PAR,94,,4,T,,,,
"     C/1774 P1 (Montaigne)",1.0000,1.429,82.98,183.97,136.53,,1774-08-15.9,,PAR,68,,,T,,,,
"     C/1779 A1 (Bode)",1.0000,0.713,32.44,28.14,62.17,,1779-01-04.5,,PAR,118,,300,F,,,,
"     C/1780 U1 (Montaigne-Olbers)",1.0000,0.515,107.92,145.08,255.16,,1780-11-29.3,,PAR,8,,3,T,,,,
"     C/1780 U2 (Messier)",1.0000,0.099,126.18,127.23,237.83,,1780-10-01.2,,PAR,38,,3,T,,,,
